[{"OBJECT_NAME":"TYCHE","OBJECT_ID":"2024-149AE","EPOCH":"2026-03-09T21:56:23.347104","MEAN_MOTION":15.258912,"ECCENTRICITY":0.00028588,"INCLINATION":97.3802,"RA_OF_ASC_NODE":148.0484,"ARG_OF_PERICENTER":233.085,"MEAN_ANOMALY":127.0127,"EPHEMERIS_TYPE":0,"CLASSIFICATION_TYPE":"U","NORAD_CAT_ID":60496,"ELEMENT_SET_NO":999,"REV_AT_EPOCH":8676,"BSTAR":0.00024931274,"MEAN_MOTION_DOT":6.318e-5,"MEAN_MOTION_DDOT":0},{"OBJECT_NAME":"KIRARI (OICETS)","OBJECT_ID":"2005-031A","EPOCH":"2026-03-09T15:02:18.043872","MEAN_MOTION":15.22934858,"ECCENTRICITY":0.0019783,"INCLINATION":98.0768,"RA_OF_ASC_NODE":316.1697,"ARG_OF_PERICENTER":5.9068,"MEAN_ANOMALY":354.2396,"EPHEMERIS_TYPE":0,"CLASSIFICATION_TYPE":"U","NORAD_CAT_ID":28809,"ELEMENT_SET_NO":999,"REV_AT_EPOCH":12344,"BSTAR":0.00027776,"MEAN_MOTION_DOT":6.472e-5,"MEAN_MOTION_DDOT":0}]
